ORBCOMM FM103           
1 40091U 14040F   26018.85628706  .00000486  00000+0  13976-3 0  9998
2 40091  47.0056  78.9644 0002168 215.9439 144.1301 14.58604054595589
ORBCOMM FM114           
1 41179U 15081A   26018.94100709  .00000529  00000+0  14891-3 0  9995
2 41179  47.0064 347.5139 0002912 250.5725 109.4846 14.58626099535967
ORBCOMM FM119           
1 41180U 15081B   26018.93837408  .00000363  00000+0  11362-3 0  9995
2 41180  46.9996 256.8859 0001413 306.2459  53.8296 14.58572593537210
ORBCOMM FM105           
1 41181U 15081C   26018.76655165  .00000193  00000+0  98813-4 0  9993
2 41181  47.0017 283.7406 0001862 226.3238 133.7488 14.45442175531931
ORBCOMM FM110           
1 41182U 15081D   26018.86155212  .00000760  00000+0  19768-3 0  9994
2 41182  47.0036 347.3719 0001570 100.0788 260.0275 14.58674393535824
ORBCOMM FM118           
1 41183U 15081E   26018.89632849  .00000668  00000+0  17834-3 0  9993
2 41183  47.0057 347.5154 0002236  44.7829 315.3237 14.58657253535933
ORBCOMM FM112           
1 41184U 15081F   26018.96751816  .00000366  00000+0  11416-3 0  9993
2 41184  46.9985 255.7003 0002048 246.9474 113.1196 14.58607287537165
ORBCOMM FM113           
1 41185U 15081G   26018.94481291  .00000309  00000+0  10207-3 0  9993
2 41185  47.0001 256.1690 0001769 256.7338 103.3350 14.58607648537143
